#dP2024  2 21 12  0  0.00000000      96 __u+U IGS20 EXT  IAC
## 2302 302400.00000000   900.00000000 60361 0.5000000000000
+  119   C06C07C08C09C10C11C12C13C14C16C19C20C21C22C23C24C25
+        C26C27C28C29C30C32C33C34C35C36C37C38C39C40C41C42C43
+        C44C45C46E02E03E04E05E07E08E09E10E11E12E13E14E15E18
+        E19E21E24E25E26E27E30E31E33E34E36G01G02G03G04G05G06
+        G07G08G09G10G11G12G13G14G15G16G17G18G19G20G21G22G23
+        G24G25G26G27G28G29G30G31G32J02J03J04R01R02R03R04R05
+        R07R08R09R11R12R13R14R15R16R17R18R19R20R21R22R24R26
++        10  9  9  9  9  9 10 11 10  9  9  7  9  8  9  8  9
++         7  7 10  9  7 10  8  8  7  9  9 11  8 11 11  8  8
++         7  9  9  8  8  7  8  8  7  7  7  8  8  7  8  7  7
++         8  8  7  7  8  8  8  8  8  7  8 13  9  8  7  9 11
++         8  8  7  8  8  7  8  8  8  8  8  8  8  8  9  8  8
++         7  7  7  8  7  8  7  7  8  9  9  0  8  8  8  8  8
++         9 10  9  9  8  9  7  8  8  9  9  9 10  7  8  8  8
%c M  cc GPS ccc cccc cccc cccc cccc ccccc ccccc ccccc ccccc
%c cc cc ccc ccc cccc cccc cccc cccc ccccc ccccc ccccc ccccc
%f  0.0000000  0.000000000  0.00000000000  0.000000000000000
%f  0.0000000  0.000000000  0.00000000000  0.000000000000000
%i    0    0    0    0      0      0      0      0         0
%i    0    0    0    0      0      0      0      0         0
/* IAC                                ULTRA-RAPID PREDICTION
/* S/V CLOCKS ARE ALIGNED TO GNSS TIME                      
/* G:C1WC2W R:C1PC2P E:C1XC5X C:C2IC6I J:C1CC2S             
/* PCV:IGS20_2290 OL/AL:FES2004  NONE     YN ORB:CoN CLK:CoN
*  2024 02 22  5  0  0.00000000
PC06 -16764.458484  37283.977277   9741.002949    126.125497
PC07  -3080.030549  33965.522310  24987.709986   -840.921511
PC08 -12598.480226  19155.649334 -35416.070605     19.402714
PC09 -10712.583418  36281.409472  18383.412652   -523.374960
PC10   3860.837187  37006.922811  20651.035705     75.017133
PC11   5957.393528 -27091.522986   3104.287848    423.252760
PC12  15308.190120 -18162.248400 -14613.031654    764.180671
PC13  -2857.435763  21614.176589 -35923.916171    419.426382
PC14  -2787.609972 -20534.970708  18678.294539    244.939860
PC16 -18508.191865  36976.286236   7500.268716   -354.125540
PC19  11549.625378  22527.841560 -11741.054330   -924.655505
PC20  -4619.947445  16404.236956 -22088.797959   -186.621927
PC21  19541.230333    353.687782  19948.529182   -961.762501
PC22  22009.663106  16118.924874   5946.358870   -100.788605
PC23 -20519.623772  -7390.616595 -17417.251593   -779.617264
PC24  17770.946845 -15841.555155 -14561.328455    906.951959
PC25  -2853.112381 -16147.978164 -22593.086593    332.089834
PC26  26947.713651  -7019.847516   1481.791250   -252.666647
PC27 -17009.328510   9550.194763  19931.322536    274.643059
PC28 -13745.807340  -9314.080633  22434.435472    209.057277
PC29   1994.366441  25630.239066 -10853.354943    245.061764
PC30 -10876.727207  24617.773091   7318.397654    -28.262197
PC32 -19565.924380   -268.001342 -19870.751996   -571.360033
PC33 -11549.053953 -22454.516387  11868.354505   -950.763064
PC34  10069.785530 -25370.630875  -5881.380328    374.648235
PC35  14136.095967   8895.771615 -22362.629411    427.939699
PC36   1913.021717  16341.363018  22554.245262     -6.307722
PC37 -27174.774481   6113.502571  -1926.956065   -938.064263
PC38 -20794.600588  19769.649896 -30883.802226    138.332049
PC39 -20836.096716  36512.138691     35.751747     -7.246440
PC40  -6562.923581  30094.621516  28905.317188    -57.577233
PC41 -21843.890534 -16579.848657  -5069.411685   -894.330626
PC42   6214.065750 -15320.550577  22523.810712   -452.274359
PC43  -1346.360191 -26029.628756   9995.242170     61.380863
PC44  16787.742126 -10013.538567 -19943.342705    391.856054
PC45  20606.408564   7224.034667  17352.628532    -71.618392
PC46 -17100.310287  15957.609260  15238.660247   -125.831563
PE02 -28466.536082  -4611.721206   6710.556783    105.394087
PE03 -17537.870537  -3045.053777 -23649.227066    -95.459807
PE04  10664.458399 -18564.671563  20449.493401   -333.001468
PE05 -14073.423043 -22562.201306 -12996.831603   4722.350809
PE07   2088.937211  28976.331289  -5687.876611   -105.069501
PE08 -10921.760833  17907.778409 -20886.659561   -227.719888
PE09  -2037.956395 -28940.555484   5842.882248   -344.863362
PE10  15913.729455 -22916.524761   9890.970581   -603.830705
PE11   6859.536091 -22138.416850  18419.147841   3231.376143
PE12  21673.494360 -20163.444393    836.783296   -916.871201
PE13  -7485.581212  22262.971147 -17996.714008    -20.271807
PE14   6510.445791 -21929.738204 -11975.381045     46.332433
PE15 -21888.367202  19913.861303   -265.786389    -87.188727
PE18   4041.350001  31094.375746    899.993327    354.508021
PE19  17522.693752   5691.073568  23177.076893   -568.146946
PE21  22556.088397  15567.960588  11165.617337   -580.278313
PE24  -2710.445895 -18000.178633 -23368.568078   -611.764229
PE25 -22277.577657 -15732.984787 -11519.096212      1.203906
PE26  11703.190690  11175.901471 -24776.134121    375.857138
PE27   3189.221894  17988.574684  23280.162509   -280.848154
PE30 -18068.994476   9609.732311  21373.421813    -22.141547
PE31  17805.320506  -9783.501888 -21526.257987    -16.571121
PE33  23070.620450  -5453.229459 -17720.274877      7.957890
PE34 -23235.964578   5978.881109  17336.260748    -96.003969
PE36 -11031.521490 -11581.569172  24913.143895   -189.341755
PG01  -7918.273092  20382.021267 -15181.424940    170.565117
PG02 -13872.554616  21499.088729  -6111.120757   -481.647553
PG03  -4908.840361  13971.346854 -22191.157637    208.522536
PG04  -2941.574177  24038.446252 -10730.540650    297.686199
PG05  17870.990021  -8028.074352  17802.832065   -162.724762
PG06  18493.461253    103.684769 -19036.225813    397.432788
PG07   4190.950340  16419.239820  20836.930488    -67.724207
PG08  -7933.857218  18167.832679  17366.052360   -168.194955
PG09   7549.222684  25383.630453   1503.575896    100.334623
PG10 -23791.043252 -11051.550339   5356.298740      1.138930
PG11  22463.021735  -9694.326110 -10255.681071   -583.934727
PG12   6611.432027 -13841.888341 -21968.331683   -480.360195
PG13  13404.914918  -9309.694099  20703.602845    627.752024
PG14  21398.816649  13546.442980   8341.967459    332.118052
PG15   5815.377018 -19180.972430  16835.081259    130.228578
PG16 -22533.022263   1395.824696  14014.765380   -357.291052
PG17  12418.781572  18891.256068 -13392.624332    716.199972
PG18  -4389.379586 -15373.565904  21189.088788   -560.849278
PG19  14866.497737  10380.443491 -19718.700860    444.060003
PG20  25404.366659  -2042.044576   7238.976372    386.585070
PG21 -16810.832618  19796.793201  -1029.142994    134.043008
PG22  24118.396801  10713.845793   1106.285943     27.265194
PG23 -15230.751176 -15203.813227  15714.115257    161.404438
PG24  14190.941175 -21675.932946  -5151.496967   -435.635706
PG25  -5898.336150 -16723.349304 -20190.074887    489.311190
PG26 -26310.886593  -3290.661412   3445.950344    187.603381
PG27 -14083.102405   5468.352092  21543.080789     -6.124613
PG28 -17192.436558  -2668.144831 -20086.224482   -139.321181
PG29  -4017.491731 -26197.481333    112.913104   -606.471714
PG30  13876.932427   8429.932711  21179.838954   -429.377898
PG31 -21889.195074   5823.459413 -14400.208053   -227.845272
PG32 -14859.074354 -15533.771234 -15531.532606   -612.868370
PJ02 -28824.679917  20873.373511  27716.285853     -2.208730
PJ03 -33367.347417  25501.216429   9253.039341     -0.229845
PJ04      0.000000      0.000000      0.000000     50.844838
PR01 -17555.882191 -14081.802553 -11989.598994     77.804682
PR02 -12102.324329    821.783910 -22399.303531    -22.520750
PR03   -215.667882  15942.151760 -19839.245378     94.978577
PR04  11364.441072  21874.452351  -6498.323742    224.485100
PR05  16816.113041  16132.367204  10363.586185    127.291947
PR07   -436.028012 -16576.854594  19447.291552     76.355417
PR08 -11583.355186 -21846.740258   6398.203787    -74.503980
PR09  24311.545212  -5638.695250  -5459.478116    171.328728
PR11  -4928.851079 -10376.212103 -22767.739378     33.548117
PR12 -22176.075978  -3719.533257 -12041.664527     37.003493
PR13 -24979.942007   4135.901296   3095.382185    -44.601770
PR14 -12487.146063  10778.063723  19454.776493     26.087505
PR15   6517.669788  10249.590982  22442.496423     81.974733
PR16  22032.269360   3667.914155  12352.701428     23.458636
PR17 -10929.191433  23067.783112     13.420852     63.226242
PR18  -2028.912630  20113.704865 -15501.831517    128.610366
PR19   6912.200011   8796.288635 -22921.238774   -266.728853
PR20  14841.361444 -11918.715776 -16996.625776   -108.658823
PR21  10994.255002 -23004.922719    250.813749    -78.910367
PR22   1633.181658 -19656.415470  16213.481705    109.293004
PR24 -14682.832169  12821.747913  16475.850787    -44.916879
PR26 -11182.730333 -21730.742259   7291.799117   -197.172191
EOF
